start=new Date('2023-05-05T00:00:00.000Z').valueOf();
sats=[{"RA_OF_ASC_NODE":"129.0617","OBJECT_TYPE":"PAYLOAD","MEAN_MOTION_DDOT":"0.0000000000000","EPOCH":"2023-05-04T10:41:44.496096","PERIAPSIS":"538.944","REV_AT_EPOCH":"7863","TIME_SYSTEM":"UTC","GP_ID":"231238308","TLE_LINE1":"1 49754U 21115AG  23124.44565389 -.00000449  00000-0 -10099-4 0  9997","ECCENTRICITY":"0.00011540","INCLINATION":"53.2163","OBJECT_ID":"2021-115AG","CENTER_NAME":"EARTH","LAUNCH_DATE":"2021-12-02","COUNTRY_CODE":"US","MEAN_ELEMENT_THEORY":"SGP4","ARG_OF_PERICENTER":"92.2580","TLE_LINE2":"2 49754  53.2163 129.0617 0001154  92.2580 267.8544 15.08841136 78631","APOAPSIS":"540.540","FILE":"3900892","RCS_SIZE":"LARGE","PERIOD":"95.437","OBJECT_NAME":"STARLINK-3193","EPHEMERIS_TYPE":"0","ELEMENT_SET_NO":"999","SITE":"AFETR","CLASSIFICATION_TYPE":"U","REF_FRAME":"TEME","BSTAR":"-0.00001009900000","MEAN_MOTION":"15.08841136","NORAD_CAT_ID":"49754","DECAY_DATE":null,"MEAN_ANOMALY":"267.8544","MEAN_MOTION_DOT":"-0.00000449","SEMIMAJOR_AXIS":"6917.877"},{"APOAPSIS":"540.640","TLE_LINE2":"2 49755  53.2165 139.0280 0001312  84.6413 275.4729 15.08844186 78499","ARG_OF_PERICENTER":"84.6413","MEAN_ELEMENT_THEORY":"SGP4","COUNTRY_CODE":"US","OBJECT_ID":"2021-115AH","CENTER_NAME":"EARTH","LAUNCH_DATE":"2021-12-02","PERIAPSIS":"538.825","EPOCH":"2023-05-04T10:19:11.881632","TIME_SYSTEM":"UTC","REV_AT_EPOCH":"7849","GP_ID":"231237064","TLE_LINE1":"1 49755U 21115AH  23124.42999863  .00000620  00000-0  57054-4 0  9995","INCLINATION":"53.2165","ECCENTRICITY":"0.00013120","RA_OF_ASC_NODE":"139.0280","OBJECT_TYPE":"PAYLOAD","MEAN_MOTION_DDOT":"0.0000000000000","MEAN_MOTION_DOT":"0.00000620","SEMIMAJOR_AXIS":"6917.868","DECAY_DATE":null,"MEAN_ANOMALY":"275.4729","REF_FRAME":"TEME","BSTAR":"0.00005705400000","MEAN_MOTION":"15.08844186","NORAD_CAT_ID":"49755","CLASSIFICATION_TYPE":"U","SITE":"AFETR","PERIOD":"95.437","OBJECT_NAME":"STARLINK-3210","EPHEMERIS_TYPE":"0","ELEMENT_SET_NO":"999","FILE":"3900892","RCS_SIZE":"LARGE"},{"NORAD_CAT_ID":"49756","MEAN_MOTION":"15.08838190","BSTAR":"-0.00000965740000","REF_FRAME":"TEME","MEAN_ANOMALY":"244.9130","DECAY_DATE":null,"SEMIMAJOR_AXIS":"6917.886","MEAN_MOTION_DOT":"-0.00000442","RCS_SIZE":"LARGE","FILE":"3900892","ELEMENT_SET_NO":"999","EPHEMERIS_TYPE":"0","OBJECT_NAME":"STARLINK-3207","PERIOD":"95.438","CLASSIFICATION_TYPE":"U","SITE":"AFETR","MEAN_ELEMENT_THEORY":"SGP4","ARG_OF_PERICENTER":"115.2031","TLE_LINE2":"2 49756  53.2183 128.9270 0001628 115.2031 244.9130 15.08838190 78634","APOAPSIS":"540.877","MEAN_MOTION_DDOT":"0.0000000000000","OBJECT_TYPE":"PAYLOAD","RA_OF_ASC_NODE":"128.9270","ECCENTRICITY":"0.00016280","TLE_LINE1":"1 49756U 21115AJ  23124.45301741 -.00000442  00000-0 -96574-5 0  9996","INCLINATION":"53.2183","GP_ID":"231237312","REV_AT_EPOCH":"7863","TIME_SYSTEM":"UTC","EPOCH":"2023-05-04T10:52:20.704224","PERIAPSIS":"538.625","LAUNCH_DATE":"2021-12-02","CENTER_NAME":"EARTH","OBJECT_ID":"2021-115AJ","COUNTRY_CODE":"US"},{"LAUNCH_DATE":"2021-12-02","OBJECT_ID":"2021-115AK","CENTER_NAME":"EARTH","COUNTRY_CODE":"US","MEAN_MOTION_DDOT":"0.0000000000000","RA_OF_ASC_NODE":"129.2611","OBJECT_TYPE":"PAYLOAD","GP_ID":"231238065","ECCENTRICITY":"0.00015240","TLE_LINE1":"1 49757U 21115AK  23124.38035948 -.00000129  00000-0  10011-4 0  9994","INCLINATION":"53.2167","PERIAPSIS":"538.691","EPOCH":"2023-05-04T09:07:43.059072","TIME_SYSTEM":"UTC","REV_AT_EPOCH":"7862","TLE_LINE2":"2 49757  53.2167 129.2611 0001524  77.2048 282.9114 15.08839888 78628","APOAPSIS":"540.800","MEAN_ELEMENT_THEORY":"SGP4","ARG_OF_PERICENTER":"77.2048","SITE":"AFETR","CLASSIFICATION_TYPE":"U","RCS_SIZE":"LARGE","FILE":"3900892","EPHEMERIS_TYPE":"0","ELEMENT_SET_NO":"999","PERIOD":"95.438","OBJECT_NAME":"STARLINK-3197","DECAY_DATE":null,"MEAN_ANOMALY":"282.9114","SEMIMAJOR_AXIS":"6917.881","MEAN_MOTION_DOT":"-0.00000129","MEAN_MOTION":"15.08839888","NORAD_CAT_ID":"49757","REF_FRAME":"TEME","BSTAR":"0.00001001100000"},{"MEAN_MOTION_DDOT":"0.0000000000000","OBJECT_TYPE":"PAYLOAD","RA_OF_ASC_NODE":"129.1864","TLE_LINE1":"1 49758U 21115AL  23124.39412097 -.00000155  00000-0  83407-5 0  9999","INCLINATION":"53.2148","ECCENTRICITY":"0.00013340","GP_ID":"231238809","REV_AT_EPOCH":"7862","TIME_SYSTEM":"UTC","EPOCH":"2023-05-04T09:27:32.051808","PERIAPSIS":"538.820","LAUNCH_DATE":"2021-12-02","CENTER_NAME":"EARTH","OBJECT_ID":"2021-115AL","COUNTRY_CODE":"US","MEAN_ELEMENT_THEORY":"SGP4","ARG_OF_PERICENTER":"91.2094","TLE_LINE2":"2 49758  53.2148 129.1864 0001334  91.2094 268.9051 15.08840774 78623","APOAPSIS":"540.666","RCS_SIZE":"LARGE","FILE":"3900892","ELEMENT_SET_NO":"999","EPHEMERIS_TYPE":"0","OBJECT_NAME":"STARLINK-3194","PERIOD":"95.438","CLASSIFICATION_TYPE":"U","SITE":"AFETR","NORAD_CAT_ID":"49758","MEAN_MOTION":"15.08840774","BSTAR":"0.00000834070000","REF_FRAME":"TEME","MEAN_ANOMALY":"268.9051","DECAY_DATE":null,"SEMIMAJOR_AXIS":"6917.878","MEAN_MOTION_DOT":"-0.00000155"},{"RA_OF_ASC_NODE":"128.9366","OBJECT_TYPE":"PAYLOAD","MEAN_MOTION_DDOT":"0.0000000000000","PERIAPSIS":"538.812","EPOCH":"2023-05-04T10:47:01.756032","TIME_SYSTEM":"UTC","REV_AT_EPOCH":"7863","GP_ID":"231237565","INCLINATION":"53.2164","TLE_LINE1":"1 49759U 21115AM  23124.44932588 -.00000023  00000-0  16622-4 0  9996","ECCENTRICITY":"0.00013590","OBJECT_ID":"2021-115AM","CENTER_NAME":"EARTH","LAUNCH_DATE":"2021-12-02","COUNTRY_CODE":"US","MEAN_ELEMENT_THEORY":"SGP4","ARG_OF_PERICENTER":"88.3261","TLE_LINE2":"2 49759  53.2164 128.9366 0001359  88.3261 271.7886 15.08837927 78631","APOAPSIS":"540.692","FILE":"3900892","RCS_SIZE":"LARGE","PERIOD":"95.438","OBJECT_NAME":"STARLINK-3204","EPHEMERIS_TYPE":"0","ELEMENT_SET_NO":"999","SITE":"AFETR","CLASSIFICATION_TYPE":"U","REF_FRAME":"TEME","BSTAR":"0.00001662200000","MEAN_MOTION":"15.08837927","NORAD_CAT_ID":"49759","DECAY_DATE":null,"MEAN_ANOMALY":"271.7886","MEAN_MOTION_DOT":"-0.00000023","SEMIMAJOR_AXIS":"6917.887"},{"ELEMENT_SET_NO":"999","EPHEMERIS_TYPE":"0","OBJECT_NAME":"STARLINK-3199","PERIOD":"95.437","RCS_SIZE":"LARGE","FILE":"3900892","CLASSIFICATION_TYPE":"U","SITE":"AFETR","NORAD_CAT_ID":"49760","MEAN_MOTION":"15.08843019","BSTAR":"0.00008310300000","REF_FRAME":"TEME","SEMIMAJOR_AXIS":"6917.871","MEAN_MOTION_DOT":"0.00001035","MEAN_ANOMALY":"271.5295","DECAY_DATE":null,"ECCENTRICITY":"0.00014800","TLE_LINE1":"1 49760U 21115AN  23124.40148055  .00001035  00000-0  83103-4 0  9993","INCLINATION":"53.2156","GP_ID":"231237813","REV_AT_EPOCH":"7863","TIME_SYSTEM":"UTC","PERIAPSIS":"538.712","EPOCH":"2023-05-04T09:38:07.919520","MEAN_MOTION_DDOT":"0.0000000000000","OBJECT_TYPE":"PAYLOAD","RA_OF_ASC_NODE":"129.1543","COUNTRY_CODE":"US","LAUNCH_DATE":"2021-12-02","CENTER_NAME":"EARTH","OBJECT_ID":"2021-115AN","ARG_OF_PERICENTER":"88.5867","MEAN_ELEMENT_THEORY":"SGP4","APOAPSIS":"540.760","TLE_LINE2":"2 49760  53.2156 129.1543 0001480  88.5867 271.5295 15.08843019 78634"},{"FILE":"3900892","RCS_SIZE":"LARGE","OBJECT_NAME":"STARLINK-3203","PERIOD":"95.438","ELEMENT_SET_NO":"999","EPHEMERIS_TYPE":"0","SITE":"AFETR","CLASSIFICATION_TYPE":"U","BSTAR":"0.00004682200000","REF_FRAME":"TEME","NORAD_CAT_ID":"49761","MEAN_MOTION":"15.08839855","MEAN_ANOMALY":"270.7848","DECAY_DATE":null,"MEAN_MOTION_DOT":"0.00000457","SEMIMAJOR_AXIS":"6917.881","OBJECT_TYPE":"PAYLOAD","RA_OF_ASC_NODE":"129.1994","MEAN_MOTION_DDOT":"0.0000000000000","REV_AT_EPOCH":"7862","TIME_SYSTEM":"UTC","EPOCH":"2023-05-04T09:22:14.251872","PERIAPSIS":"538.768","TLE_LINE1":"1 49761U 21115AP  23124.39044273  .00000457  00000-0  46822-4 0  9993","ECCENTRICITY":"0.00014130","INCLINATION":"53.2165","GP_ID":"231238566","CENTER_NAME":"EARTH","OBJECT_ID":"2021-115AP","LAUNCH_DATE":"2021-12-02","COUNTRY_CODE":"US","MEAN_ELEMENT_THEORY":"SGP4","ARG_OF_PERICENTER":"89.3306","TLE_LINE2":"2 49761  53.2165 129.1994 0001413  89.3306 270.7848 15.08839855 78625","APOAPSIS":"540.723"},{"BSTAR":"0.00003544700000","REF_FRAME":"TEME","NORAD_CAT_ID":"49762","MEAN_MOTION":"15.08839719","MEAN_MOTION_DOT":"0.00000276","SEMIMAJOR_AXIS":"6917.881","MEAN_ANOMALY":"275.4179","DECAY_DATE":null,"OBJECT_NAME":"STARLINK-3195","PERIOD":"95.438","ELEMENT_SET_NO":"999","EPHEMERIS_TYPE":"0","FILE":"3900892","RCS_SIZE":"LARGE","CLASSIFICATION_TYPE":"U","SITE":"AFETR","ARG_OF_PERICENTER":"84.6950","MEAN_ELEMENT_THEORY":"SGP4","APOAPSIS":"540.574","TLE_LINE2":"2 49762  53.2160 129.1189 0001196  84.6950 275.4179 15.08839719 78637","TIME_SYSTEM":"UTC","REV_AT_EPOCH":"7863","PERIAPSIS":"538.919","EPOCH":"2023-05-04T09:48:44.200224","TLE_LINE1":"1 49762U 21115AQ  23124.40884491  .00000276  00000-0  35447-4 0  9990","INCLINATION":"53.2160","ECCENTRICITY":"0.00011960","GP_ID":"231238309","OBJECT_TYPE":"PAYLOAD","RA_OF_ASC_NODE":"129.1189","MEAN_MOTION_DDOT":"0.0000000000000","COUNTRY_CODE":"US","CENTER_NAME":"EARTH","OBJECT_ID":"2021-115AQ","LAUNCH_DATE":"2021-12-02"},{"OBJECT_TYPE":"PAYLOAD","RA_OF_ASC_NODE":"129.1697","MEAN_MOTION_DDOT":"0.0000000000000","REV_AT_EPOCH":"7863","TIME_SYSTEM":"UTC","EPOCH":"2023-05-04T09:32:50.029728","PERIAPSIS":"538.895","INCLINATION":"53.2152","TLE_LINE1":"1 49763U 21115AR  23124.39780127  .00000166  00000-0  28495-4 0  9993","ECCENTRICITY":"0.00012240","GP_ID":"231237065","CENTER_NAME":"EARTH","OBJECT_ID":"2021-115AR","LAUNCH_DATE":"2021-12-02","COUNTRY_CODE":"US","MEAN_ELEMENT_THEORY":"SGP4","ARG_OF_PERICENTER":"88.4210","TLE_LINE2":"2 49763  53.2152 129.1697 0001224  88.4210 271.6922 15.08841238 78639","APOAPSIS":"540.588","FILE":"3900892","RCS_SIZE":"LARGE","OBJECT_NAME":"STARLINK-3198","PERIOD":"95.437","ELEMENT_SET_NO":"999","EPHEMERIS_TYPE":"0","CLASSIFICATION_TYPE":"U","SITE":"AFETR","BSTAR":"0.00002849500000","REF_FRAME":"TEME","NORAD_CAT_ID":"49763","MEAN_MOTION":"15.08841238","MEAN_ANOMALY":"271.6922","DECAY_DATE":null,"MEAN_MOTION_DOT":"0.00000166","SEMIMAJOR_AXIS":"6917.877"}];
